{"type": "FeatureCollection", "features": [ {"type": "Feature", "properties": {"norad_id": 42987, "name": "SKYSAT-C11", "group": "resource", "lat": -11.11659201620892, "lon": 137.96175725543836, "alt_km": 427.35398589516444, "timestamp": "2025-12-24T16:52:41.157879+00:00", "meta": {"OBJECT_NAME": "SKYSAT-C11", "OBJECT_ID": "2017-068A", "EPOCH": "2025-12-24T04:30:53.019360", "MEAN_MOTION": 15.47928653, "ECCENTRICITY": 0.00011485, "INCLINATION": 97.4151, "RA_OF_ASC_NODE": 135.9671, "ARG_OF_PERICENTER": 95.0977, "MEAN_ANOMALY": 265.0404, "EPHEMERIS_TYPE": 0, "CLASSIFICATION_TYPE": "U", "NORAD_CAT_ID": 42987, "ELEMENT_SET_NO": 999, "REV_AT_EPOCH": 45608, "BSTAR": 0.00048908624, "MEAN_MOTION_DOT": 0.0002545, "MEAN_MOTION_DDOT": 0}, "tle": {"line1": "1 42987U 17068A   25358.18811365  .00025450  00000+0  48909-3 0  9996", "line2": "2 42987  97.4151 135.9671 0001148  95.0977 265.0404 15.47928653456086"}}, "geometry": {"type": "Point", "coordinates": [137.96175725543836, -11.11659201620892]}}, {"type": "Feature", "properties": {"norad_id": 42988, "name": "SKYSAT-C10", "group": "resource", "lat": 56.63291758267955, "lon": -38.98556289104415, "alt_km": 461.332535593212, "timestamp": "2025-12-24T16:52:41.157890+00:00", "meta": {"OBJECT_NAME": "SKYSAT-C10", "OBJECT_ID": "2017-068B", "EPOCH": "2025-12-23T21:32:17.126016", "MEAN_MOTION": 15.32289982, "ECCENTRICITY": 0.0005313, "INCLINATION": 97.4271, "RA_OF_ASC_NODE": 128.7811, "ARG_OF_PERICENTER": 72.934, "MEAN_ANOMALY": 287.2483, "EPHEMERIS_TYPE": 0, "CLASSIFICATION_TYPE": "U", "NORAD_CAT_ID": 42988, "ELEMENT_SET_NO": 999, "REV_AT_EPOCH": 45550, "BSTAR": 0.00034377, "MEAN_MOTION_DOT": 0.00010647, "MEAN_MOTION_DDOT": 0}, "tle": {"line1": "1 42988U 17068B   25357.89742044  .00010647  00000+0  34377-3 0  9997", "line2": "2 42988  97.4271 128.7811 0005313  72.9340 287.2483 15.32289982455500"}}, "geometry": {"type": "Point", "coordinates": [-38.98556289104415, 56.63291758267955]}}, {"type": "Feature", "properties": {"norad_id": 42989, "name": "SKYSAT-C9", "group": "resource", "lat": 36.86060025697389, "lon": -45.339136790354395, "alt_km": 454.8149609072334, "timestamp": "2025-12-24T16:52:41.157900+00:00", "meta": {"OBJECT_NAME": "SKYSAT-C9", "OBJECT_ID": "2017-068C", "EPOCH": "2025-12-24T06:52:51.583296", "MEAN_MOTION": 15.36333731, "ECCENTRICITY": 0.0010298, "INCLINATION": 97.4198, "RA_OF_ASC_NODE": 128.6337, "ARG_OF_PERICENTER": 50.7002, "MEAN_ANOMALY": 309.5153, "EPHEMERIS_TYPE": 0, "CLASSIFICATION_TYPE": "U", "NORAD_CAT_ID": 42989, "ELEMENT_SET_NO": 999, "REV_AT_EPOCH": 45585, "BSTAR": 0.00039502022, "MEAN_MOTION_DOT": 0.00013945, "MEAN_MOTION_DDOT": 0}, "tle": {"line1": "1 42989U 17068C   25358.28670814  .00013945  00000+0  39502-3 0  9996", "line2": "2 42989  97.4198 128.6337 0010298  50.7002 309.5153 15.36333731455854"}}, "geometry": {"type": "Point", "coordinates": [-45.339136790354395, 36.86060025697389]}}, {"type": "Feature", "properties": {"norad_id": 42990, "name": "SKYSAT-C8", "group": "resource", "lat": -21.931044624160418, "lon": 131.76917852064642, "alt_km": 471.49327076668123, "timestamp": "2025-12-24T16:52:41.157911+00:00", "meta": {"OBJECT_NAME": "SKYSAT-C8", "OBJECT_ID": "2017-068D", "EPOCH": "2025-12-24T04:26:35.648448", "MEAN_MOTION": 15.33165037, "ECCENTRICITY": 9.57e-05, "INCLINATION": 97.4289, "RA_OF_ASC_NODE": 128.2372, "ARG_OF_PERICENTER": 276.8133, "MEAN_ANOMALY": 83.3, "EPHEMERIS_TYPE": 0, "CLASSIFICATION_TYPE": "U", "NORAD_CAT_ID": 42990, "ELEMENT_SET_NO": 999, "REV_AT_EPOCH": 45546, "BSTAR": 0.00039858863, "MEAN_MOTION_DOT": 0.000127, "MEAN_MOTION_DDOT": 0}, "tle": {"line1": "1 42990U 17068D   25358.18513482  .00012700  00000+0  39859-3 0  9997", "line2": "2 42990  97.4289 128.2372 0000957 276.8133  83.3000 15.33165037455463"}}, "geometry": {"type": "Point", "coordinates": [131.76917852064642, -21.931044624160418]}}, {"type": "Feature", "properties": {"norad_id": 42991, "name": "SKYSAT-C7", "group": "resource", "lat": 12.098949855264683, "lon": -48.60826788512999, "alt_km": 473.5644110074836, "timestamp": "2025-12-24T16:52:41.157921+00:00", "meta": {"OBJECT_NAME": "SKYSAT-C7", "OBJECT_ID": "2017-068E", "EPOCH": "2025-12-24T06:44:49.252704", "MEAN_MOTION": 15.32564096, "ECCENTRICITY": 0.00069152, "INCLINATION": 97.4294, "RA_OF_ASC_NODE": 129.3651, "ARG_OF_PERICENTER": 20.8322, "MEAN_ANOMALY": 339.32, "EPHEMERIS_TYPE": 0, "CLASSIFICATION_TYPE": "U", "NORAD_CAT_ID": 42991, "ELEMENT_SET_NO": 999, "REV_AT_EPOCH": 45554, "BSTAR": 0.00037715661, "MEAN_MOTION_DOT": 0.00011794, "MEAN_MOTION_DDOT": 0}, "tle": {"line1": "1 42991U 17068E   25358.28112561  .00011794  00000+0  37716-3 0  9994", "line2": "2 42991  97.4294 129.3651 0006915  20.8322 339.3200 15.32564096455541"}}, "geometry": {"type": "Point", "coordinates": [-48.60826788512999, 12.098949855264683]}}, {"type": "Feature", "properties": {"norad_id": 42992, "name": "SKYSAT-C6", "group": "resource", "lat": -67.24274383209973, "lon": -67.91542433027409, "alt_km": 481.0535098232376, "timestamp": "2025-12-24T16:52:41.157931+00:00", "meta": {"OBJECT_NAME": "SKYSAT-C6", "OBJECT_ID": "2017-068F", "EPOCH": "2025-12-24T06:23:23.138592", "MEAN_MOTION": 15.31718973, "ECCENTRICITY": 0.0004812, "INCLINATION": 97.433, "RA_OF_ASC_NODE": 129.7795, "ARG_OF_PERICENTER": 51.2572, "MEAN_ANOMALY": 308.9099, "EPHEMERIS_TYPE": 0, "CLASSIFICATION_TYPE": "U", "NORAD_CAT_ID": 42992, "ELEMENT_SET_NO": 999, "REV_AT_EPOCH": 45552, "BSTAR": 0.00038376957, "MEAN_MOTION_DOT": 0.00011685, "MEAN_MOTION_DDOT": 0}, "tle": {"line1": "1 42992U 17068F   25358.26624003  .00011685  00000+0  38377-3 0  9995", "line2": "2 42992  97.4330 129.7795 0004812  51.2572 308.9099 15.31718973455525"}}, "geometry": {"type": "Point", "coordinates": [-67.91542433027409, -67.24274383209973]}}, {"type": "Feature", "properties": {"norad_id": 43111, "name": "CARTOSAT-2F", "group": "resource", "lat": -3.6053208034199953, "lon": -124.32451400758887, "alt_km": 511.358594104021, "timestamp": "2025-12-24T16:52:41.157942+00:00", "meta": {"OBJECT_NAME": "CARTOSAT-2F", "OBJECT_ID": "2018-004A", "EPOCH": "2025-12-24T06:35:18.571200", "MEAN_MOTION": 15.19232076, "ECCENTRICITY": 0.00016819, "INCLINATION": 97.43, "RA_OF_ASC_NODE": 55.7249, "ARG_OF_PERICENTER": 111.8376, "MEAN_ANOMALY": 248.3037, "EPHEMERIS_TYPE": 0, "CLASSIFICATION_TYPE": "U", "NORAD_CAT_ID": 43111, "ELEMENT_SET_NO": 999, "REV_AT_EPOCH": 44077, "BSTAR": 0.00022669226, "MEAN_MOTION_DOT": 4.708e-05, "MEAN_MOTION_DDOT": 0}, "tle": {"line1": "1 43111U 18004A   25358.27452050  .00004708  00000+0  22669-3 0  9997", "line2": "2 43111  97.4300  55.7249 0001681 111.8376 248.3037 15.19232076440775"}}, "geometry": {"type": "Point", "coordinates": [-124.32451400758887, -3.6053208034199953]}}, {"type": "Feature", "properties": {"norad_id": 43259, "name": "GAOFEN-1 02", "group": "resource", "lat": -81.83274175825439, "lon": 154.7318670492067, "alt_km": 648.134095757473, "timestamp": "2025-12-24T16:52:41.157953+00:00", "meta": {"OBJECT_NAME": "GAOFEN-1 02", "OBJECT_ID": "2018-031A", "EPOCH": "2025-12-24T07:31:53.750784", "MEAN_MOTION": 14.76437104, "ECCENTRICITY": 0.00025323, "INCLINATION": 98.0788, "RA_OF_ASC_NODE": 56.1067, "ARG_OF_PERICENTER": 173.8598, "MEAN_ANOMALY": 186.2643, "EPHEMERIS_TYPE": 0, "CLASSIFICATION_TYPE": "U", "NORAD_CAT_ID": 43259, "ELEMENT_SET_NO": 999, "REV_AT_EPOCH": 41689, "BSTAR": 0.0001239405, "MEAN_MOTION_DOT": 8.1e-06, "MEAN_MOTION_DDOT": 0}, "tle": {"line1": "1 43259U 18031A   25358.31381656  .00000810  00000+0  12394-3 0  9992", "line2": "2 43259  98.0788  56.1067 0002532 173.8598 186.2643 14.76437104416898"}}, "geometry": {"type": "Point", "coordinates": [154.7318670492067, -81.83274175825439]}}, {"type": "Feature", "properties": {"norad_id": 43260, "name": "GAOFEN-1 03", "group": "resource", "lat": 24.55884648479135, "lon": 52.650678715594, "alt_km": 640.595301740791, "timestamp": "2025-12-24T16:52:41.157963+00:00", "meta": {"OBJECT_NAME": "GAOFEN-1 03", "OBJECT_ID": "2018-031B", "EPOCH": "2025-12-24T07:00:25.400160", "MEAN_MOTION": 14.76459606, "ECCENTRICITY": 0.00017146, "INCLINATION": 98.0782, "RA_OF_ASC_NODE": 55.9606, "ARG_OF_PERICENTER": 259.7757, "MEAN_ANOMALY": 100.3259, "EPHEMERIS_TYPE": 0, "CLASSIFICATION_TYPE": "U", "NORAD_CAT_ID": 43260, "ELEMENT_SET_NO": 999, "REV_AT_EPOCH": 41688, "BSTAR": 0.00013782944, "MEAN_MOTION_DOT": 9.07e-06, "MEAN_MOTION_DDOT": 0}, "tle": {"line1": "1 43260U 18031B   25358.29196065  .00000907  00000+0  13783-3 0  9999", "line2": "2 43260  98.0782  55.9606 0001714 259.7757 100.3259 14.76459606416882"}}, "geometry": {"type": "Point", "coordinates": [52.650678715594, 24.55884648479135]}}, {"type": "Feature", "properties": {"norad_id": 43262, "name": "GAOFEN-1 04", "group": "resource", "lat": 25.658132562340157, "lon": -119.54501646480298, "alt_km": 639.8210978688066, "timestamp": "2025-12-24T16:52:41.157973+00:00", "meta": {"OBJECT_NAME": "GAOFEN-1 04", "OBJECT_ID": "2018-031D", "EPOCH": "2025-12-24T08:03:01.659168", "MEAN_MOTION": 14.7643022, "ECCENTRICITY": 5.609e-05, "INCLINATION": 98.0789, "RA_OF_ASC_NODE": 56.1747, "ARG_OF_PERICENTER": 61.4817, "MEAN_ANOMALY": 298.6449, "EPHEMERIS_TYPE": 0, "CLASSIFICATION_TYPE": "U", "NORAD_CAT_ID": 43262, "ELEMENT_SET_NO": 999, "REV_AT_EPOCH": 41688, "BSTAR": 0.0002191547, "MEAN_MOTION_DOT": 1.472e-05, "MEAN_MOTION_DDOT": 0}, "tle": {"line1": "1 43262U 18031D   25358.33543587  .00001472  00000+0  21915-3 0  9995", "line2": "2 43262  98.0789  56.1747 0000560  61.4817 298.6449 14.76430220416886"}}, "geometry": {"type": "Point", "coordinates": [-119.54501646480298, 25.658132562340157]}}]}